NORAD_CAT_ID,OBJECT_NAME,OBJECT_TYPE,EPOCH,MEAN_MOTION,ECCENTRICITY,INCLINATION,RA_OF_ASC_NODE,ARG_OF_PERICENTER,MEAN_ANOMALY,BSTAR,MEAN_MOTION_DOT,MEAN_MOTION_DDOT,TLE_LINE0,TLE_LINE1,TLE_LINE2,SEMIMAJOR_AXIS,PERIOD,APOGEE,PERIGEE,DECAYED
50851.0,STARLINK-3314,PAYLOAD,2023-05-28 17:32:33,15.08838941,9.63e-05,53.2175,59.9477,95.3359,264.7743,0.0001158,1.556e-05,0.0,0 STARLINK-3314,1 50851U 22001BA  23148.73094503  .00001556  00000-0  11580-3 0  9998,2 50851  53.2175  59.9477 0000963  95.3359 264.7743 15.08838941 78170,6917.884,95.438,540.415,539.082,0.0
50851.0,STARLINK-3314,PAYLOAD,2023-05-29 03:04:51,15.08848342,0.0001006,53.2174,58.1633,97.0051,263.1055,0.00015132,2.122e-05,0.0,0 STARLINK-3314,1 50851U 22001BA  23149.12837824  .00002122  00000-0  15132-3 0  9990,2 50851  53.2174  58.1633 0001006  97.0051 263.1055 15.08848342 78233,6917.855,95.437,540.416,539.024,0.0
50851.0,STARLINK-3314,PAYLOAD,2023-05-30 01:20:16,15.08838651,0.0001134,53.2184,53.9946,107.1408,252.9708,-3.2142e-05,-7.99e-06,0.0,0 STARLINK-3314,1 50851U 22001BA  23150.05575035 -.00000799  00000-0 -32142-4 0  9998,2 50851  53.2184  53.9946 0001134 107.1408 252.9708 15.08838651 78373,6917.885,95.438,540.534,538.965,0.0
50851.0,STARLINK-3314,PAYLOAD,2023-05-30 22:00:17,15.08843647,0.0001151,53.2184,50.1318,106.7702,253.3417,-4.4615e-06,-3.59e-06,0.0,0 STARLINK-3314,1 50851U 22001BA  23150.91686832 -.00000359  00000-0 -44615-5 0  9992,2 50851  53.2184  50.1318 0001151 106.7702 253.3417 15.08843647 77222,6917.869,95.437,540.53,538.938,0.0
50851.0,STARLINK-3314,PAYLOAD,2023-05-31 02:46:26,15.08849174,0.0001128,53.2181,49.2404,99.8764,260.2356,5.4048e-05,5.73e-06,0.0,0 STARLINK-3314,1 50851U 22001BA  23151.11558338  .00000573  00000-0  54048-4 0  9990,2 50851  53.2181  49.2404 0001128  99.8764 260.2356 15.08849174 78533,6917.852,95.437,540.498,538.937,0.0
50851.0,STARLINK-3314,PAYLOAD,2023-05-31 21:51:04,15.08840864,0.0001468,53.2185,45.672,121.8349,238.2786,8.9582e-05,1.138e-05,0.0,0 STARLINK-3314,1 50851U 22001BA  23151.91046768  .00001138  00000-0  89582-4 0  9996,2 50851  53.2185  45.6720 0001468 121.8349 238.2786 15.08840864 77370,6917.878,95.438,540.758,538.727,0.0
50851.0,STARLINK-3314,PAYLOAD,2023-06-01 02:37:13,15.08843882,0.0001276,53.2181,44.7787,109.1369,250.9761,0.00012051,1.631e-05,0.0,0 STARLINK-3314,1 50851U 22001BA  23152.10918503  .00001631  00000-0  12051-3 0  9997,2 50851  53.2181  44.7787 0001276 109.1369 250.9761 15.08843882 78689,6917.869,95.437,540.616,538.851,0.0
50851.0,STARLINK-3314,PAYLOAD,2023-06-01 21:41:51,15.0884294,0.0001409,53.2186,41.208,122.355,237.7578,1.7825e-05,-4e-08,0.0,0 STARLINK-3314,1 50851U 22001BA  23152.90406825 -.00000004  00000-0  17825-4 0  9993,2 50851  53.2186  41.2080 0001409 122.3550 237.7578 15.08842940 78806,6917.871,95.437,540.711,538.762,0.0
50851.0,STARLINK-3314,PAYLOAD,2023-06-02 02:28:00,15.08844209,0.0001142,53.2174,40.319,90.8273,269.285,2.9887e-05,1.88e-06,0.0,0 STARLINK-3314,1 50851U 22001BA  23153.10278819  .00000188  00000-0  29887-4 0  9999,2 50851  53.2174  40.3190 0001142  90.8273 269.2850 15.08844209 77554,6917.868,95.437,540.523,538.943,0.0
50851.0,STARLINK-3314,PAYLOAD,2023-06-02 16:46:29,15.08835004,0.0001223,53.2176,37.642,96.0271,264.0861,2.3159e-05,8.1e-07,0.0,0 STARLINK-3314,1 50851U 22001BA  23153.69895426  .00000081  00000-0  23159-4 0  9990,2 50851  53.2176  37.6420 0001223  96.0271 264.0861 15.08835004 78927,6917.896,95.438,540.607,538.915,0.0
50851.0,STARLINK-3314,PAYLOAD,2023-06-02 21:32:39,15.08838074,0.0001234,53.2179,36.749,100.6321,259.481,-2.3191e-05,-6.57e-06,0.0,0 STARLINK-3314,1 50851U 22001BA  23153.89767419 -.00000657  00000-0 -23191-4 0  9999,2 50851  53.2179  36.7490 0001234 100.6321 259.4810 15.08838074 77670,6917.886,95.438,540.605,538.898,0.0
50851.0,STARLINK-3314,PAYLOAD,2023-06-02 23:08:02,15.08841355,0.0001137,53.2173,36.4539,90.5468,269.5654,-2.6546e-06,-3.3e-06,0.0,0 STARLINK-3314,1 50851U 22001BA  23153.96391222 -.00000330  00000-0 -26546-5 0  9998,2 50851  53.2173  36.4539 0001137  90.5468 269.5654 15.08841355 77681,6917.876,95.437,540.528,538.955,0.0
50851.0,STARLINK-3314,PAYLOAD,2023-06-03 21:23:26,15.08839757,0.0001123,53.218,32.2919,86.0104,274.1016,6.7771e-07,-2.77e-06,0.0,0 STARLINK-3314,1 50851U 22001BA  23154.89127560 -.00000277  00000-0  67771-6 0  9998,2 50851  53.2180  32.2919 0001123  86.0104 274.1016 15.08839757 77820,6917.881,95.438,540.523,538.969,0.0
50851.0,STARLINK-3314,PAYLOAD,2023-06-04 00:34:12,15.08842808,0.0001126,53.2182,31.6978,87.3001,272.812,4.712e-05,4.62e-06,0.0,0 STARLINK-3314,1 50851U 22001BA  23155.02375242  .00000462  00000-0  47120-4 0  9995,2 50851  53.2182  31.6978 0001126  87.3001 272.8120 15.08842808 79120,6917.872,95.437,540.516,538.958,0.0
50851.0,STARLINK-3314,PAYLOAD,2023-06-04 19:38:50,15.08837006,0.00011,53.2185,28.1301,95.0918,265.02,4.7239e-05,4.64e-06,0.0,0 STARLINK-3314,1 50851U 22001BA  23155.81863784  .00000464  00000-0  47239-4 0  9998,2 50851  53.2185  28.1301 0001100  95.0918 265.0200 15.08837006 79249,6917.89,95.438,540.516,538.994,0.0
50851.0,STARLINK-3314,PAYLOAD,2023-06-04 21:14:13,15.08837443,0.00011,53.2184,27.8327,94.859,265.2528,4.9119e-05,4.94e-06,0.0,0 STARLINK-3314,1 50851U 22001BA  23155.88487756  .00000494  00000-0  49119-4 0  9998,2 50851  53.2184  27.8327 0001100  94.8590 265.2528 15.08837443 77973,6917.888,95.438,540.514,538.992,0.0
50851.0,STARLINK-3314,PAYLOAD,2023-06-05 00:24:59,15.08837838,0.0001136,53.2182,27.2377,92.6434,267.4689,0.00012831,1.755e-05,0.0,0 STARLINK-3314,1 50851U 22001BA  23156.01735536  .00001755  00000-0  12831-3 0  9997,2 50851  53.2182  27.2377 0001136  92.6434 267.4689 15.08837838 77994,6917.887,95.438,540.538,538.966,0.0
50851.0,STARLINK-3314,PAYLOAD,2023-06-05 21:05:00,15.088418,0.0001082,53.2185,23.3722,94.0765,266.035,4.4563e-05,4.22e-06,0.0,0 STARLINK-3314,1 50851U 22001BA  23156.87847613  .00000422  00000-0  44563-4 0  9999,2 50851  53.2185  23.3722 0001082  94.0765 266.0350 15.08841800 78121,6917.875,95.437,540.488,538.991,0.0
50851.0,STARLINK-3314,PAYLOAD,2023-06-06 00:15:46,15.08844116,0.000106,53.2183,22.7769,90.3294,269.782,5.9824e-05,6.65e-06,0.0,0 STARLINK-3314,1 50851U 22001BA  23157.01095399  .00000665  00000-0  59824-4 0  9997,2 50851  53.2183  22.7769 0001060  90.3294 269.7820 15.08844116 79424,6917.868,95.437,540.466,539.0,0.0
50851.0,STARLINK-3314,PAYLOAD,2023-06-06 17:45:01,15.0883871,0.0001098,53.2185,19.5056,87.5403,272.5715,1.37e-05,-7e-07,0.0,0 STARLINK-3314,1 50851U 22001BA  23157.73959910 -.00000070  00000-0  13700-4 0  9998,2 50851  53.2185  19.5056 0001098  87.5403 272.5715 15.08838710 79530,6917.884,95.438,540.509,538.99,0.0
50851.0,STARLINK-3314,PAYLOAD,2023-06-06 19:20:24,15.08839791,0.0001123,53.2185,19.2086,84.8638,275.2482,2.2155e-05,6.5e-07,0.0,0 STARLINK-3314,1 50851U 22001BA  23157.80583844  .00000065  00000-0  22155-4 0  9992,2 50851  53.2185  19.2086 0001123  84.8638 275.2482 15.08839791 78269,6917.881,95.438,540.523,538.969,0.0
50851.0,STARLINK-3314,PAYLOAD,2023-06-07 00:06:33,15.08847024,0.0001098,53.2184,18.316,85.1576,274.9541,7.5348e-05,9.12e-06,0.0,0 STARLINK-3314,1 50851U 22001BA  23158.00455193  .00000912  00000-0  75348-4 0  9993,2 50851  53.2184  18.3160 0001098  85.1576 274.9541 15.08847024 79572,6917.859,95.437,540.484,538.964,0.0
50851.0,STARLINK-3314,PAYLOAD,2023-06-07 14:25:02,15.08836839,0.0001085,53.2183,15.6383,104.0718,256.0395,-3.2932e-05,-8.12e-06,0.0,0 STARLINK-3314,1 50851U 22001BA  23158.60072208 -.00000812  00000-0 -32932-4 0  9994,2 50851  53.2183  15.6383 0001085 104.0718 256.0395 15.08836839 79663,6917.89,95.438,540.506,539.004,0.0
50851.0,STARLINK-3314,PAYLOAD,2023-06-07 20:46:34,15.0883995,0.0001095,53.2191,14.4478,100.6836,259.4279,-1.4837e-06,-3.11e-06,0.0,0 STARLINK-3314,1 50851U 22001BA  23158.86567883 -.00000311  00000-0 -14837-5 0  9999,2 50851  53.2191  14.4478 0001095 100.6836 259.4279 15.08839950 78426,6917.881,95.438,540.503,538.988,0.0
50851.0,STARLINK-3314,PAYLOAD,2023-06-07 23:57:20,15.0884107,0.0001072,53.219,13.8529,101.9309,258.1803,3.0282e-06,-2.4e-06,0.0,0 STARLINK-3314,1 50851U 22001BA  23158.99815773 -.00000240  00000-0  30282-5 0  9999,2 50851  53.2190  13.8529 0001072 101.9309 258.1803 15.08841070 79728,6917.877,95.437,540.484,539.001,0.0
50851.0,STARLINK-3314,PAYLOAD,2023-06-08 20:37:21,15.0884818,0.000108,53.2189,9.987,106.7962,253.3149,2.1792e-05,5.9e-07,0.0,0 STARLINK-3314,1 50851U 22001BA  23159.85927334  .00000059  00000-0  21792-4 0  9994,2 50851  53.2189   9.9870 0001080 106.7962 253.3149 15.08848180 79851,6917.855,95.437,540.468,538.973,0.0
50851.0,STARLINK-3314,PAYLOAD,2023-06-09 17:17:22,15.08836143,0.0001101,53.2189,6.1215,97.5079,262.6038,3.7392e-05,3.07e-06,0.0,0 STARLINK-3314,1 50851U 22001BA  23160.72040118  .00000307  00000-0  37392-4 0  9997,2 50851  53.2189   6.1215 0001101  97.5079 262.6038 15.08836143 79983,6917.892,95.438,540.519,538.996,0.0
50851.0,STARLINK-3314,PAYLOAD,2023-06-09 23:38:55,15.08838532,0.0001103,53.2186,4.9324,96.1821,263.9296,5.4234e-05,5.75e-06,0.0,0 STARLINK-3314,1 50851U 22001BA  23160.98535959  .00000575  00000-0  54234-4 0  9998,2 50851  53.2186   4.9324 0001103  96.1821 263.9296 15.08838532 78746,6917.885,95.438,540.513,538.987,0.0
50851.0,STARLINK-3314,PAYLOAD,2023-06-10 20:18:55,15.08843609,9.57e-05,53.2174,1.0695,88.5894,271.5208,9.8609e-07,-2.72e-06,0.0,0 STARLINK-3314,1 50851U 22001BA  23161.84647942 -.00000272  00000-0  98609-6 0  9991,2 50851  53.2174   1.0695 0000957  88.5894 271.5208 15.08843609 78876,6917.869,95.437,540.396,539.072,0.0
50851.0,STARLINK-3314,PAYLOAD,2023-06-11 01:05:04,15.08849461,9.97e-05,53.2172,0.1768,91.9389,268.1717,4.8564e-05,4.85e-06,0.0,0 STARLINK-3314,1 50851U 22001BA  23162.04519340  .00000485  00000-0  48564-4 0  9992,2 50851  53.2172   0.1768 0000997  91.9389 268.1717 15.08849461 80182,6917.851,95.437,540.406,539.027,0.0
